NORAD_CAT_ID,OBJECT_NAME,OBJECT_TYPE,EPOCH,MEAN_MOTION,ECCENTRICITY,INCLINATION,RA_OF_ASC_NODE,ARG_OF_PERICENTER,MEAN_ANOMALY,BSTAR,MEAN_MOTION_DOT,MEAN_MOTION_DDOT,TLE_LINE0,TLE_LINE1,TLE_LINE2,SEMIMAJOR_AXIS,PERIOD,APOGEE,PERIGEE,DECAYED
55927.0,STARLINK-5919,PAYLOAD,2023-10-05 09:51:32,14.98332164,0.0002263,70.0006,18.9847,280.6318,79.4586,4.7836e-05,4.78e-06,0.0,0 STARLINK-5919,1 55927U 23037P   23278.41078880  .00000478  00000-0  47836-4 0  9992,2 55927  70.0006  18.9847 0002263 280.6318  79.4586 14.98332164 31072,6950.186,96.107,573.624,570.478,0.0
55927.0,STARLINK-5919,PAYLOAD,2023-10-05 13:03:48,14.98329746,0.0002806,70.0006,18.6489,274.2243,85.8596,1.2361e-05,5.5e-07,0.0,0 STARLINK-5919,1 55927U 23037P   23278.54430962  .00000055  00000-0  12361-4 0  9995,2 55927  70.0006  18.6489 0002806 274.2243  85.8596 14.98329746 30758,6950.194,96.107,574.009,570.108,0.0
55927.0,STARLINK-5919,PAYLOAD,2023-10-05 16:16:04,14.98332402,0.0002725,70.001,18.3118,269.9146,90.1701,3.5732e-05,3.33e-06,0.0,0 STARLINK-5919,1 55927U 23037P   23278.67782656  .00000333  00000-0  35732-4 0  9995,2 55927  70.0010  18.3118 0002725 269.9146  90.1701 14.98332402 30774,6950.185,96.107,573.944,570.157,0.0
55927.0,STARLINK-5919,PAYLOAD,2023-10-06 09:53:33,14.98325062,0.0002605,70.0017,16.4609,258.1039,101.9828,-7.9817e-05,-1.045e-05,0.0,0 STARLINK-5919,1 55927U 23037P   23279.41219458 -.00001045  00000-0 -79817-4 0  9998,2 55927  70.0017  16.4609 0002605 258.1039 101.9828 14.98325062 31229,6950.208,96.107,573.884,570.263,0.0
55927.0,STARLINK-5919,PAYLOAD,2023-10-06 13:05:49,14.9832775,0.0002948,70.0008,16.1234,268.2492,91.8329,-5.5043e-05,-7.5e-06,0.0,0 STARLINK-5919,1 55927U 23037P   23279.54571278 -.00000750  00000-0 -55043-4 0  9990,2 55927  70.0008  16.1234 0002948 268.2492  91.8329 14.98327750 30908,6950.2,96.107,574.114,570.016,0.0
55927.0,STARLINK-5919,PAYLOAD,2023-10-06 16:18:05,14.98331101,0.0002893,70.0008,15.7863,268.881,91.2018,-4.9801e-05,-6.87e-06,0.0,0 STARLINK-5919,1 55927U 23037P   23279.67923072 -.00000687  00000-0 -49801-4 0  9991,2 55927  70.0008  15.7863 0002893 268.8810  91.2018 14.98331101 30926,6950.189,96.107,574.065,570.044,0.0
55927.0,STARLINK-5919,PAYLOAD,2023-10-07 09:55:34,14.98327823,0.0003018,70.0007,13.9348,274.2777,85.8037,0.00011266,1.251e-05,0.0,0 STARLINK-5919,1 55927U 23037P   23280.41358895  .00001251  00000-0  11266-3 0  9999,2 55927  70.0007  13.9348 0003018 274.2777  85.8037 14.98327823 31372,6950.2,96.107,574.162,569.967,0.0
55927.0,STARLINK-5919,PAYLOAD,2023-10-07 13:07:49,14.98332272,0.0003007,70.0005,13.5982,272.3791,87.7024,0.00014443,1.631e-05,0.0,0 STARLINK-5919,1 55927U 23037P   23280.54710551  .00001631  00000-0  14443-3 0  9996,2 55927  70.0005  13.5982 0003007 272.3791  87.7024 14.98332272 31059,6950.186,96.107,574.141,569.961,0.0
55927.0,STARLINK-5919,PAYLOAD,2023-10-07 16:20:05,14.98335441,0.0002931,70.0013,13.2637,271.2173,88.865,0.00021474,2.471e-05,0.0,0 STARLINK-5919,1 55927U 23037P   23280.68062133  .00002471  00000-0  21474-3 0  9992,2 55927  70.0013  13.2637 0002931 271.2173  88.8650 14.98335441 31417,6950.176,96.107,574.078,570.004,0.0
55927.0,STARLINK-5919,PAYLOAD,2023-10-08 13:09:50,14.98344076,0.00029,69.9999,11.0733,265.1112,94.9716,9.6228e-05,1.056e-05,0.0,0 STARLINK-5919,1 55927U 23037P   23281.54849627  .00001056  00000-0  96228-4 0  9997,2 55927  69.9999  11.0733 0002900 265.1112  94.9716 14.98344076 31203,6950.149,96.106,574.03,569.999,0.0
55927.0,STARLINK-5919,PAYLOAD,2023-10-08 16:22:05,14.98341591,0.0002999,70.0005,10.737,266.59,93.4916,0.00022894,2.641e-05,0.0,0 STARLINK-5919,1 55927U 23037P   23281.68201376  .00002641  00000-0  22894-3 0  9993,2 55927  70.0005  10.7370 0002999 266.5900  93.4916 14.98341591 31569,6950.157,96.106,574.106,569.938,0.0
55927.0,STARLINK-5919,PAYLOAD,2023-10-08 22:46:37,14.98383673,0.0002759,70.0023,10.0632,280.0862,79.9985,-0.00092399,-0.00011116,0.0,0 STARLINK-5919,1 55927U 23037P   23281.94905024 -.00011116  00000-0 -92399-3 0  9999,2 55927  70.0023  10.0632 0002759 280.0862  79.9985 14.98383673 31602,6950.027,96.104,573.809,569.974,0.0
55927.0,STARLINK-5919,PAYLOAD,2023-10-09 08:23:28,14.98327874,0.0002545,70.0017,9.0551,269.5407,90.5461,-3.273e-05,-4.83e-06,0.0,0 STARLINK-5919,1 55927U 23037P   23282.34962963 -.00000483  00000-0 -32730-4 0  9998,2 55927  70.0017   9.0551 0002545 269.5407  90.5461 14.98327874 31668,6950.199,96.107,573.833,570.296,0.0
55927.0,STARLINK-5919,PAYLOAD,2023-10-09 13:11:52,14.98325535,0.0002402,70.0019,8.5507,256.5024,103.5867,-5.3912e-05,-7.36e-06,0.0,0 STARLINK-5919,1 55927U 23037P   23282.54991156 -.00000736  00000-0 -53912-4 0  9992,2 55927  70.0019   8.5507 0002402 256.5024 103.5867 14.98325535 31351,6950.207,96.107,573.741,570.402,0.0
55927.0,STARLINK-5919,PAYLOAD,2023-10-09 16:24:08,14.98326163,0.0002233,70.0016,8.2125,265.6977,94.3926,3.0911e-05,2.76e-06,0.0,0 STARLINK-5919,1 55927U 23037P   23282.68342985  .00000276  00000-0  30911-4 0  9998,2 55927  70.0016   8.2125 0002233 265.6977  94.3926 14.98326163 31374,6950.205,96.107,573.622,570.518,0.0
55927.0,STARLINK-5919,PAYLOAD,2023-10-10 11:37:44,14.98335923,0.0002623,70.0012,6.1927,263.3669,96.7191,4.4536e-05,4.39e-06,0.0,0 STARLINK-5919,1 55927U 23037P   23283.48454016  .00000439  00000-0  44536-4 0  9995,2 55927  70.0012   6.1927 0002623 263.3669  96.7191 14.98335923 31838,6950.175,96.107,573.863,570.217,0.0
55927.0,STARLINK-5919,PAYLOAD,2023-10-10 13:13:52,14.98336872,0.0002605,70.0012,6.0243,263.8283,96.2579,5.737e-05,5.92e-06,0.0,0 STARLINK-5919,1 55927U 23037P   23283.55129924  .00000592  00000-0  57370-4 0  9990,2 55927  70.0012   6.0243 0002605 263.8283  96.2579 14.98336872 31508,6950.172,96.107,573.847,570.226,0.0
55927.0,STARLINK-5919,PAYLOAD,2023-10-10 14:50:00,14.9833884,0.0002546,70.0012,5.8557,261.0546,99.0325,7.8575e-05,8.45e-06,0.0,0 STARLINK-5919,1 55927U 23037P   23283.61805719  .00000845  00000-0  78575-4 0  9991,2 55927  70.0012   5.8557 0002546 261.0546  99.0325 14.98338840 31517,6950.166,96.106,573.8,570.261,0.0
55927.0,STARLINK-5919,PAYLOAD,2023-10-11 11:39:46,14.98321201,0.0002899,70.0002,3.6671,269.3566,90.7261,2.3011e-05,1.82e-06,0.0,0 STARLINK-5919,1 55927U 23037P   23284.48595118  .00000182  00000-0  23011-4 0  9995,2 55927  70.0002   3.6671 0002899 269.3566  90.7261 14.98321201 31984,6950.22,96.108,574.1,570.07,0.0
55927.0,STARLINK-5919,PAYLOAD,2023-10-11 13:15:54,14.98323122,0.0002884,70.0001,3.499,267.865,92.2179,6.0988e-06,-2e-07,0.0,0 STARLINK-5919,1 55927U 23037P   23284.55271067 -.00000020  00000-0  60988-5 0  9994,2 55927  70.0001   3.4990 0002884 267.8650  92.2179 14.98323122 31659,6950.214,96.107,574.084,570.075,0.0
55927.0,STARLINK-5919,PAYLOAD,2023-10-12 05:17:14,14.98331206,0.0002797,70.0003,1.8155,265.5353,94.5487,-1.6132e-05,-2.85e-06,0.0,0 STARLINK-5919,1 55927U 23037P   23285.22030770 -.00000285  00000-0 -16132-4 0  9998,2 55927  70.0003   1.8155 0002797 265.5353  94.5487 14.98331206 32092,6950.189,96.107,573.998,570.11,0.0
55927.0,STARLINK-5919,PAYLOAD,2023-10-12 13:17:54,14.98336332,0.0002819,70.0006,0.975,267.8927,92.1909,5.0252e-05,5.07e-06,0.0,0 STARLINK-5919,1 55927U 23037P   23285.55410264  .00000507  00000-0  50252-4 0  9990,2 55927  70.0006   0.9750 0002819 267.8927  92.1909 14.98336332 31809,6950.173,96.107,573.998,570.079,0.0
55927.0,STARLINK-5919,PAYLOAD,2023-10-12 14:54:02,14.98337617,0.0002798,70.0004,0.8065,267.8828,92.201,6.6941e-05,7.06e-06,0.0,0 STARLINK-5919,1 55927U 23037P   23285.62086134  .00000706  00000-0  66941-4 0  9996,2 55927  70.0004   0.8065 0002798 267.8828  92.2010 14.98337617 32151,6950.169,96.107,573.979,570.09,0.0
55927.0,STARLINK-5919,PAYLOAD,2023-10-13 05:19:15,14.98320628,0.0002591,70.0007,359.2904,261.556,98.5305,0.00015669,1.777e-05,0.0,0 STARLINK-5919,1 55927U 23037P   23286.22170927  .00001777  00000-0  15669-3 0  9996,2 55927  70.0007 359.2904 0002591 261.5560  98.5305 14.98320628 32242,6950.222,96.108,573.888,570.286,0.0
55927.0,STARLINK-5919,PAYLOAD,2023-10-13 13:19:55,14.98329339,0.0002747,70.0005,358.449,264.6012,95.4834,0.00014133,1.594e-05,0.0,0 STARLINK-5919,1 55927U 23037P   23286.55550578  .00001594  00000-0  14133-3 0  9998,2 55927  70.0005 358.4490 0002747 264.6012  95.4834 14.98329339 31958,6950.195,96.107,573.969,570.151,0.0
55927.0,STARLINK-5919,PAYLOAD,2023-10-13 14:56:03,14.98326689,0.0002635,70.0008,358.2806,261.6944,98.3916,0.00022105,2.545e-05,0.0,0 STARLINK-5919,1 55927U 23037P   23286.62226573  .00002545  00000-0  22105-3 0  9996,2 55927  70.0008 358.2806 0002635 261.6944  98.3916 14.98326689 31966,6950.203,96.107,573.9,570.237,0.0
55927.0,STARLINK-5919,PAYLOAD,2023-10-14 10:09:39,14.98339467,0.0002376,70.0006,356.2608,258.1525,101.9368,9.0183e-05,9.84e-06,0.0,0 STARLINK-5919,1 55927U 23037P   23287.42337877  .00000984  00000-0  90183-4 0  9992,2 55927  70.0006 356.2608 0002376 258.1525 101.9368 14.98339467 32422,6950.164,96.106,573.68,570.377,0.0
55927.0,STARLINK-5919,PAYLOAD,2023-10-14 13:21:55,14.98339749,0.0002776,70.0004,355.9245,264.6351,95.4492,0.00012232,1.367e-05,0.0,0 STARLINK-5919,1 55927U 23037P   23287.55689678  .00001367  00000-0  12232-3 0  9999,2 55927  70.0004 355.9245 0002776 264.6351  95.4492 14.98339749 32109,6950.163,96.106,573.957,570.098,0.0
55927.0,STARLINK-5919,PAYLOAD,2023-10-14 21:22:35,14.98361941,0.0003039,70.0003,355.0815,274.1876,85.8936,-0.00049292,-5.974e-05,0.0,0 STARLINK-5919,1 55927U 23037P   23287.89069236 -.00005974  00000-0 -49292-3 0  9994,2 55927  70.0003 355.0815 0003039 274.1876  85.8936 14.98361941 32153,6950.094,96.105,574.071,569.847,0.0
55927.0,STARLINK-5919,PAYLOAD,2023-10-15 03:47:09,14.98326209,0.0002346,70.0003,354.4096,268.3023,91.7868,-7.3071e-06,-1.8e-06,0.0,0 STARLINK-5919,1 55927U 23037P   23288.15774980 -.00000180  00000-0 -73071-5 0  9991,2 55927  70.0003 354.4096 0002346 268.3023  91.7868 14.98326209 32536,6950.205,96.107,573.7,570.439,0.0
